PLEIADES NEO 3          
1 48268U 21034A   26189.99860483 -.00000359  00000+0 -38951-4 0  9999
2 48268  97.8935 264.4513 0001346  92.6488 267.4879 14.81671800280882
PLEIADES NEO 4          
1 49070U 21073E   26189.96482704  .00000665  00000+0  91074-4 0  9990
2 49070  97.8932 264.4144 0001314  93.6706 266.4657 14.81670313264591
