{"fetched_at":"2026-07-09T08:01:16.679Z","source":"https://celestrak.org/NORAD/elements/gp.php?NAME=PLEIADES&FORMAT=JSON","constellation":"pleiades-neo","records":[{"OBJECT_NAME":"PLEIADES NEO 3","OBJECT_ID":"2021-034A","EPOCH":"2026-07-08T23:57:59.457312","CLASSIFICATION_TYPE":"U","MEAN_MOTION":14.816718,"ECCENTRICITY":0.00013468,"INCLINATION":97.8935,"RA_OF_ASC_NODE":264.4513,"ARG_OF_PERICENTER":92.6488,"MEAN_ANOMALY":267.4879,"EPHEMERIS_TYPE":0,"NORAD_CAT_ID":48268,"ELEMENT_SET_NO":999,"REV_AT_EPOCH":28088,"BSTAR":-0.000038951291,"MEAN_MOTION_DOT":-0.00000359,"MEAN_MOTION_DDOT":0},{"OBJECT_NAME":"PLEIADES NEO 4","OBJECT_ID":"2021-073E","EPOCH":"2026-07-08T23:09:21.056256","CLASSIFICATION_TYPE":"U","MEAN_MOTION":14.81670313,"ECCENTRICITY":0.00013148,"INCLINATION":97.8932,"RA_OF_ASC_NODE":264.4144,"ARG_OF_PERICENTER":93.6706,"MEAN_ANOMALY":266.4657,"EPHEMERIS_TYPE":0,"NORAD_CAT_ID":49070,"ELEMENT_SET_NO":999,"REV_AT_EPOCH":26459,"BSTAR":0.000091073865,"MEAN_MOTION_DOT":0.00000665,"MEAN_MOTION_DDOT":0}]}
